{
  "type": "FeatureCollection",
  "features": [
    {
      "type": "Feature",
      "properties": {
        "norad_id": 35080,
        "name": "IRIDIUM 33 DEB",
        "group": "iridium-33-debris",
        "lat": 68.0988045971263,
        "lon": -143.92846511487778,
        "alt_km": 560.6151416656394,
        "timestamp": "2025-12-26T23:26:42.509490+00:00",
        "meta_object_name": "IRIDIUM 33 DEB",
        "meta_object_id": "1997-051PF",
        "meta_epoch": "2025-12-26T03:34:24.926304",
        "meta_mean_motion": 14.87541641,
        "meta_eccentricity": 0.00577697,
        "meta_inclination": 86.209,
        "meta_ra_of_asc_node": 45.9614,
        "meta_arg_of_pericenter": 133.1259,
        "meta_mean_anomaly": 227.4819,
        "meta_ephemeris_type": 0,
        "meta_classification_type": "U",
        "meta_norad_cat_id": 35080,
        "meta_element_set_no": 999,
        "meta_rev_at_epoch": 69887,
        "meta_bstar": 0.0052116304,
        "meta_mean_motion_dot": 0.00049051,
        "meta_mean_motion_ddot": 0,
        "tle_line1": "1 35080U 97051PF  25360.14889961  .00049051  00000+0  52116-2 0  9995",
        "tle_line2": "2 35080  86.2090  45.9614 0057769 133.1259 227.4819 14.87541641698872"
      },
      "geometry": {
        "type": "Point",
        "coordinates": [
          -143.92846511487778,
          68.0988045971263
        ]
      }
    },
    {
      "type": "Feature",
      "properties": {
        "norad_id": 35297,
        "name": "IRIDIUM 33 DEB",
        "group": "iridium-33-debris",
        "lat": -51.54191163395011,
        "lon": -118.75101749717787,
        "alt_km": 757.0507115960991,
        "timestamp": "2025-12-26T23:26:42.509499+00:00",
        "meta_object_name": "IRIDIUM 33 DEB",
        "meta_object_id": "1997-051PM",
        "meta_epoch": "2025-12-26T10:44:46.667040",
        "meta_mean_motion": 14.4521519,
        "meta_eccentricity": 0.0018076,
        "meta_inclination": 86.3846,
        "meta_ra_of_asc_node": 56.909,
        "meta_arg_of_pericenter": 100.7298,
        "meta_mean_anomaly": 259.594,
        "meta_ephemeris_type": 0,
        "meta_classification_type": "U",
        "meta_norad_cat_id": 35297,
        "meta_element_set_no": 999,
        "meta_rev_at_epoch": 70624,
        "meta_bstar": 0.00060666,
        "meta_mean_motion_dot": 2.149e-05,
        "meta_mean_motion_ddot": 0,
        "tle_line1": "1 35297U 97051PM  25360.44776235  .00002149  00000+0  60666-3 0  9994",
        "tle_line2": "2 35297  86.3846  56.9090 0018076 100.7298 259.5940 14.45215190706246"
      },
      "geometry": {
        "type": "Point",
        "coordinates": [
          -118.75101749717787,
          -51.54191163395011
        ]
      }
    },
    {
      "type": "Feature",
      "properties": {
        "norad_id": 35299,
        "name": "IRIDIUM 33 DEB",
        "group": "iridium-33-debris",
        "lat": -55.83239977375621,
        "lon": 21.49846528434533,
        "alt_km": 778.5569522620153,
        "timestamp": "2025-12-26T23:26:42.509507+00:00",
        "meta_object_name": "IRIDIUM 33 DEB",
        "meta_object_id": "1997-051PP",
        "meta_epoch": "2025-12-26T08:45:22.328064",
        "meta_mean_motion": 14.40928919,
        "meta_eccentricity": 0.0058454,
        "meta_inclination": 86.2878,
        "meta_ra_of_asc_node": 27.2535,
        "meta_arg_of_pericenter": 58.9388,
        "meta_mean_anomaly": 312.8971,
        "meta_ephemeris_type": 0,
        "meta_classification_type": "U",
        "meta_norad_cat_id": 35299,
        "meta_element_set_no": 999,
        "meta_rev_at_epoch": 86527,
        "meta_bstar": 0.00083606,
        "meta_mean_motion_dot": 2.757e-05,
        "meta_mean_motion_ddot": 0,
        "tle_line1": "1 35299U 97051PP  25360.36484176  .00002757  00000+0  83606-3 0  9991",
        "tle_line2": "2 35299  86.2878  27.2535 0058454  58.9388 312.8971 14.40928919865276"
      },
      "geometry": {
        "type": "Point",
        "coordinates": [
          21.49846528434533,
          -55.83239977375621
        ]
      }
    },
    {
      "type": "Feature",
      "properties": {
        "norad_id": 35480,
        "name": "IRIDIUM 33 DEB",
        "group": "iridium-33-debris",
        "lat": 39.58997894301208,
        "lon": -164.2821746518127,
        "alt_km": 720.9963377497279,
        "timestamp": "2025-12-26T23:26:42.509516+00:00",
        "meta_object_name": "IRIDIUM 33 DEB",
        "meta_object_id": "1997-051QA",
        "meta_epoch": "2025-12-24T07:51:25.805664",
        "meta_mean_motion": 14.49809175,
        "meta_eccentricity": 0.00158453,
        "meta_inclination": 86.3558,
        "meta_ra_of_asc_node": 19.8875,
        "meta_arg_of_pericenter": 70.7073,
        "meta_mean_anomaly": 289.5844,
        "meta_ephemeris_type": 0,
        "meta_classification_type": "U",
        "meta_norad_cat_id": 35480,
        "meta_element_set_no": 999,
        "meta_rev_at_epoch": 87199,
        "meta_bstar": 0.00057778093,
        "meta_mean_motion_dot": 2.251e-05,
        "meta_mean_motion_ddot": 0,
        "tle_line1": "1 35480U 97051QA  25358.32738201  .00002251  00000+0  57778-3 0  9997",
        "tle_line2": "2 35480  86.3558  19.8875 0015845  70.7073 289.5844 14.49809175871994"
      },
      "geometry": {
        "type": "Point",
        "coordinates": [
          -164.2821746518127,
          39.58997894301208
        ]
      }
    },
    {
      "type": "Feature",
      "properties": {
        "norad_id": 35484,
        "name": "IRIDIUM 33 DEB",
        "group": "iridium-33-debris",
        "lat": -53.016150679719516,
        "lon": -18.76647350134914,
        "alt_km": 586.6301588734832,
        "timestamp": "2025-12-26T23:26:42.509525+00:00",
        "meta_object_name": "IRIDIUM 33 DEB",
        "meta_object_id": "1997-051QE",
        "meta_epoch": "2025-12-23T05:59:10.354560",
        "meta_mean_motion": 14.99264182,
        "meta_eccentricity": 0.00245796,
        "meta_inclination": 86.3609,
        "meta_ra_of_asc_node": 347.8264,
        "meta_arg_of_pericenter": 91.5392,
        "meta_mean_anomaly": 268.8655,
        "meta_ephemeris_type": 0,
        "meta_classification_type": "U",
        "meta_norad_cat_id": 35484,
        "meta_element_set_no": 999,
        "meta_rev_at_epoch": 62173,
        "meta_bstar": 0.0029536278,
        "meta_mean_motion_dot": 0.00036413,
        "meta_mean_motion_ddot": 0,
        "tle_line1": "1 35484U 97051QE  25357.24942540  .00036413  00000+0  29536-2 0  9991",
        "tle_line2": "2 35484  86.3609 347.8264 0024579  91.5392 268.8655 14.99264182621733"
      },
      "geometry": {
        "type": "Point",
        "coordinates": [
          -18.76647350134914,
          -53.016150679719516
        ]
      }
    },
    {
      "type": "Feature",
      "properties": {
        "norad_id": 35488,
        "name": "IRIDIUM 33 DEB",
        "group": "iridium-33-debris",
        "lat": -34.335398678980525,
        "lon": -68.2029418301605,
        "alt_km": 607.8255743342825,
        "timestamp": "2025-12-26T23:26:42.509534+00:00",
        "meta_object_name": "IRIDIUM 33 DEB",
        "meta_object_id": "1997-051QJ",
        "meta_epoch": "2025-12-24T19:47:30.471936",
        "meta_mean_motion": 14.83358408,
        "meta_eccentricity": 0.00280046,
        "meta_inclination": 86.3249,
        "meta_ra_of_asc_node": 295.3058,
        "meta_arg_of_pericenter": 2.7873,
        "meta_mean_anomaly": 357.3501,
        "meta_ephemeris_type": 0,
        "meta_classification_type": "U",
        "meta_norad_cat_id": 35488,
        "meta_element_set_no": 999,
        "meta_rev_at_epoch": 88445,
        "meta_bstar": 0.0017384526,
        "meta_mean_motion_dot": 0.00014384,
        "meta_mean_motion_ddot": 0,
        "tle_line1": "1 35488U 97051QJ  25358.82465824  .00014384  00000+0  17385-2 0  9997",
        "tle_line2": "2 35488  86.3249 295.3058 0028004   2.7873 357.3501 14.83358408884452"
      },
      "geometry": {
        "type": "Point",
        "coordinates": [
          -68.2029418301605,
          -34.335398678980525
        ]
      }
    },
    {
      "type": "Feature",
      "properties": {
        "norad_id": 35616,
        "name": "IRIDIUM 33 DEB",
        "group": "iridium-33-debris",
        "lat": 60.476389383890535,
        "lon": -14.270819329092525,
        "alt_km": 612.2209583071799,
        "timestamp": "2025-12-26T23:26:42.509543+00:00",
        "meta_object_name": "IRIDIUM 33 DEB",
        "meta_object_id": "1997-051QN",
        "meta_epoch": "2025-12-21T16:46:45.287328",
        "meta_mean_motion": 14.82015021,
        "meta_eccentricity": 0.00114093,
        "meta_inclination": 86.3545,
        "meta_ra_of_asc_node": 341.6744,
        "meta_arg_of_pericenter": 134.0095,
        "meta_mean_anomaly": 226.2069,
        "meta_ephemeris_type": 0,
        "meta_classification_type": "U",
        "meta_norad_cat_id": 35616,
        "meta_element_set_no": 999,
        "meta_rev_at_epoch": 87707,
        "meta_bstar": 0.0013754653,
        "meta_mean_motion_dot": 0.00010957,
        "meta_mean_motion_ddot": 0,
        "tle_line1": "1 35616U 97051QN  25355.69913527  .00010957  00000+0  13755-2 0  9999",
        "tle_line2": "2 35616  86.3545 341.6744 0011409 134.0095 226.2069 14.82015021877070"
      },
      "geometry": {
        "type": "Point",
        "coordinates": [
          -14.270819329092525,
          60.476389383890535
        ]
      }
    }
  ]
}